     2.100          NAVIGATION                              RINEX VERSION / TYPE
fic2rin                                 08/23/2014 00:54:22 PGM / RUN BY / DATE
                                                            END OF HEADER
13 14  8 23  0  0  0.0 -.337907113135D-04 -.386535248253D-11  .000000000000D+00
     .460000000000D+02 -.320625000000D+02  .424874840600D-08 -.376968835614D+00
    -.173598527908D-05  .526938517578D-02  .840239226818D-05  .515377921104D+04
     .518400000000D+06 -.782310962677D-07 -.100395952592D+01 -.111758708954D-06
     .976440543205D+00  .226531250000D+03  .232043832048D+01 -.789818613401D-08
    -.587167315018D-09  .100000000000D+01  .180600000000D+04  .000000000000D+00
     .240000000000D+01  .000000000000D+00 -.111758708954D-07  .460000000000D+02
     .511206000000D+06  .400000000000D+01
14 14  8 23  0  0  0.0  .142203178257D-03 -.363797880709D-11  .000000000000D+00
     .430000000000D+02 -.224062500000D+02  .452268838813D-08 -.310965912978D-01
    -.112131237984D-05  .787088484503D-02  .821426510811D-05  .515370261383D+04
     .518400000000D+06 -.260770320892D-07 -.103645075067D+01  .782310962677D-07
     .968956950661D+00  .227000000000D+03 -.198951536538D+01 -.810248035797D-08
    -.627883296717D-09  .100000000000D+01  .180600000000D+04  .000000000000D+00
     .240000000000D+01  .000000000000D+00 -.884756445885D-08  .430000000000D+02
     .511206000000D+06  .400000000000D+01
15 14  8 23  0  0  0.0 -.198463443667D-03 -.227373675443D-11  .000000000000D+00
     .640000000000D+02 -.337812500000D+02  .529022035891D-08 -.651208754899D+00
    -.184774398804D-05  .643596833106D-02  .710785388947D-05  .515374396515D+04
     .518400000000D+06  .154599547386D-06 -.115138346420D+01  .484287738800D-07
     .935485349897D+00  .229937500000D+03  .275169213125D+00 -.841320758672D-08
    -.584667210879D-09  .100000000000D+01  .180600000000D+04  .000000000000D+00
     .240000000000D+01  .000000000000D+00 -.102445483208D-07  .640000000000D+02
     .511206000000D+06  .400000000000D+01
16 14  8 23  0  0  0.0 -.199736095965D-03  .238742359215D-11  .000000000000D+00
     .550000000000D+02  .533750000000D+02  .401230998596D-08  .100329129566D+01
     .286102294922D-05  .765277340543D-02  .297464430332D-05  .515364461136D+04
     .518400000000D+06 -.596046447754D-07  .104188223341D+01  .139698386192D-06
     .988616258235D+00  .335250000000D+03  .238642053405D+00 -.811212361680D-08
     .181078971237D-09  .100000000000D+01  .180600000000D+04  .000000000000D+00
     .240000000000D+01  .000000000000D+00 -.102445483208D-07  .550000000000D+02
     .511206000000D+06  .400000000000D+01
17 14  8 23  0  0  0.0 -.118457712233D-03 -.272848410532D-11  .000000000000D+00
     .104000000000D+03 -.917187500000D+02  .441982696068D-08  .979009106973D-01
    -.490620732307D-05  .940411491320D-02  .576116144657D-05  .515363975906D+04
     .518400000000D+06 -.109896063805D-06  .207303482876D+01  .124797224998D-06
     .969417913222D+00  .276562500000D+03 -.209680654242D+01 -.826248702289D-08
    -.192508018732D-09  .100000000000D+01  .180600000000D+04  .000000000000D+00
     .240000000000D+01  .000000000000D+00 -.102445483208D-07  .104000000000D+03
     .511206000000D+06  .400000000000D+01
18 14  8 23  0  0  0.0  .339848455042D-03  .250111042988D-11  .000000000000D+00
     .820000000000D+02  .253437500000D+02  .581345643951D-08  .162158517351D+01
     .109709799290D-05  .155010725139D-01  .573880970478D-05  .515371457481D+04
     .518400000000D+06 -.340864062309D-06 -.217129931995D+01 -.253319740295D-06
     .925483061536D+00  .254156250000D+03 -.201425059346D+01 -.871250576798D-08
     .282511767749D-09  .100000000000D+01  .180600000000D+04  .000000000000D+00
     .240000000000D+01  .000000000000D+00 -.107102096081D-07  .820000000000D+02
     .511206000000D+06  .400000000000D+01
19 14  8 23  0  0  0.0 -.474896747619D-03 -.193267624127D-11  .000000000000D+00
     .210000000000D+02 -.105218750000D+03  .445697136503D-08 -.749256634735D+00
    -.531971454620D-05  .105962567031D-01  .570155680180D-05  .515364743423D+04
     .518400000000D+06  .242143869400D-06  .212358967441D+01  .689178705215D-07
     .966560456780D+00  .268968750000D+03  .489825413846D+00 -.824355766298D-08
    -.212508851847D-09  .100000000000D+01  .180600000000D+04  .000000000000D+00
     .240000000000D+01  .000000000000D+00 -.149011611938D-07  .210000000000D+02
     .511206000000D+06  .400000000000D+01
21 14  8 23  0  0  0.0 -.379860866815D-03 -.216004991671D-11  .000000000000D+00
     .790000000000D+02 -.379062500000D+02  .485377360772D-08  .256583027206D+01
    -.202469527721D-05  .215861067409D-01  .116340816021D-04  .515371601486D+04
     .518400000000D+06  .132247805595D-06  .306755149058D+01 -.245869159698D-06
     .933193602414D+00  .138406250000D+03 -.200024787369D+01 -.771996442465D-08
     .337156901081D-09  .100000000000D+01  .180600000000D+04  .000000000000D+00
     .240000000000D+01  .000000000000D+00 -.111758708954D-07  .790000000000D+02
     .511206000000D+06  .400000000000D+01
22 14  8 23  0  0  0.0  .261267647147D-03  .329691829393D-11  .000000000000D+00
     .490000000000D+02  .285937500000D+02  .595560521772D-08  .106548219903D+01
     .154413282871D-05  .738273945171D-02  .550411641598D-05  .515371787071D+04
     .518400000000D+06 -.108033418655D-06 -.216958079058D+01  .763684511185D-07
     .923267750059D+00  .256093750000D+03 -.204763374327D+01 -.884251118323D-08
     .261082303697D-09  .100000000000D+01  .180600000000D+04  .000000000000D+00
     .240000000000D+01  .000000000000D+00 -.172294676304D-07  .490000000000D+02
     .511206000000D+06  .400000000000D+01
24 14  8 23  0  0  0.0 -.339625403285D-04 -.568434188608D-12  .000000000000D+00
     .280000000000D+02  .722500000000D+02  .423660504303D-08 -.185137619364D+01
     .386871397495D-05  .214122433681D-02  .103916972876D-04  .515371754265D+04
     .518400000000D+06 -.931322574615D-07 -.766414282174D-01 -.558793544769D-08
     .956420371776D+00  .178906250000D+03  .279479927998D+00 -.779782481070D-08
    -.703600736366D-10  .100000000000D+01  .180600000000D+04  .000000000000D+00
     .240000000000D+01  .000000000000D+00  .279396772385D-08  .280000000000D+02
     .511206000000D+06  .400000000000D+01
25 14  8 23  0  0  0.0  .231531448662D-04 -.682121026330D-12  .000000000000D+00
     .670000000000D+02  .578750000000D+02  .425339145654D-08  .237656833523D+01
     .300258398056D-05  .367045903113D-02  .286661088467D-05  .515356329536D+04
     .518400000000D+06 -.149011611938D-07  .979856673432D+00 -.931322574615D-07
     .976737284434D+00  .331937500000D+03  .728965437251D+00 -.819176979152D-08
     .277511559470D-09  .100000000000D+01  .180600000000D+04  .000000000000D+00
     .240000000000D+01  .000000000000D+00  .558793544769D-08  .670000000000D+02
     .511206000000D+06  .400000000000D+01
26 14  8 23  0  0  0.0 -.290577299893D-04 -.131876731757D-10  .000000000000D+00
     .340000000000D+02 -.224375000000D+02  .436839624695D-08 -.119052511015D+01
    -.951811671257D-06  .212191554019D-01  .809133052826D-05  .515368818092D+04
     .518400000000D+06  .000000000000D+00 -.101302190111D+01  .581145286560D-06
     .973808778450D+00  .230281250000D+03  .129158625891D+01 -.802461997192D-08
    -.653241495845D-09  .100000000000D+01  .180600000000D+04  .000000000000D+00
     .240000000000D+01  .000000000000D+00 -.605359673500D-08  .340000000000D+02
     .511206000000D+06  .400000000000D+01
27 14  8 23  0  0  0.0  .832835212350D-05  .318323145621D-11  .000000000000D+00
     .780000000000D+02 -.104687500000D+03  .453304596242D-08 -.661147700370D-01
    -.534765422344D-05  .146694097202D-02  .522285699844D-05  .515367947388D+04
     .518400000000D+06  .651925802231D-07  .202693721654D+01  .000000000000D+00
     .964175184944D+00  .281500000000D+03  .332075446355D+00 -.825427239501D-08
    -.219652006531D-09  .100000000000D+01  .180600000000D+04  .000000000000D+00
     .240000000000D+01  .000000000000D+00  .186264514923D-08  .780000000000D+02
     .511206000000D+06  .400000000000D+01
28 14  8 23  0  0  0.0  .379077624530D-03  .272848410532D-11  .000000000000D+00
     .186000000000D+03  .510312500000D+02  .416231623432D-08  .891366760089D+00
     .253506004810D-05  .192357338965D-01  .338442623615D-05  .515367571831D+04
     .518400000000D+06 -.273808836937D-06  .104756278381D+01 -.689178705215D-07
     .987158001013D+00  .330843750000D+03 -.170942556878D+01 -.841320758672D-08
     .140720147273D-09  .100000000000D+01  .180600000000D+04  .000000000000D+00
     .340000000000D+01  .000000000000D+00 -.107102096081D-07  .186000000000D+03
     .511206000000D+06  .400000000000D+01
29 14  8 23  0  0  0.0  .555450562388D-03  .261479726760D-11  .000000000000D+00
     .102000000000D+03 -.101187500000D+03  .430196490839D-08  .271750288286D+01
    -.543333590031D-05  .124244717881D-02  .608339905739D-05  .515365571976D+04
     .518400000000D+06  .260770320892D-07  .208217268760D+01  .540167093277D-07
     .970186527455D+00  .264218750000D+03 -.777757084796D+00 -.807283626603D-08
    -.220366321999D-09  .100000000000D+01  .180600000000D+04  .000000000000D+00
     .340000000000D+01  .000000000000D+00 -.977888703346D-08  .102000000000D+03
     .511206000000D+06  .400000000000D+01
30 14  8 23  0  0  0.0 -.522169284523D-04 -.534328137292D-11  .000000000000D+00
     .820000000000D+02  .739375000000D+02  .426767776591D-08 -.275560589501D+01
     .383146107197D-05  .100574956741D-02  .106021761894D-04  .515367423439D+04
     .518400000000D+06 -.167638063431D-07  .126732783386D-01 -.223517417908D-07
     .958733207223D+00  .174312500000D+03  .303243100997D+01 -.788211403597D-08
    -.114290474943D-10  .100000000000D+01  .180600000000D+04  .000000000000D+00
     .240000000000D+01  .000000000000D+00  .325962901115D-08  .820000000000D+02
     .511206000000D+06  .400000000000D+01
